date:2024-08-30T03:18:30+00:00
validtle:1
satid:53577
launchyear:2022
epoch:24241.71610737
epochday:241
tleage:2
tleclassification:U
active:1
name:STARLINK-4553
meananomly:264.8386
meanmotion:15.0887
rightascension:0.0000
declination:0.0000
semimajoraxis:6917.7885490888
altitudeatperigee:538
altitudeatapogee:541
inclination:53.2087
eccentricity:0.0002466
argumentofperigree:95.2887
nickname:STARLINK-4553
idesg:22101BC 
cosparid:2022-101BC
altkm:540.70192343636
velkms:7.593105431143
velkmh:27335
onumepoch:11221
onumnow:169331.84
otype:1
otypedesc:Low Earth Orbit (LEO)
status:1
timestamp:2024-08-28T17:11:12+00:00
nowjuliandate:2460552.6378476
nowepochdate:24243.1378472222
TLE:
STARLINK-4553
1 53577U 22101BC  24241.71610737  .00015182  00000+0  96911-3 0  9993
2 53577  53.2087  38.7070 0002466  95.2887 264.8386 15.08870722112210